GEISAT PRECURSOR        
1 56934U 23084C   26197.81740495  .00004099  00000+0  12315-3 0  9993
2 56934  97.6262 339.7595 0004595 223.0833 137.0050 15.35023724172071
BLACKJACK ACES-3        
1 56950U 23084U   26197.82122802  .00002653  00000+0  13094-3 0  9997
2 56950  97.6249 333.2479 0000871 215.7210 144.3965 15.18797425171661
BLACKJACK ACES-2        
1 56955U 23084Z   26197.62957716  .00003286  00000+0  16158-3 0  9997
2 56955  97.6247 333.1383 0001710 137.3269 222.8098 15.18745909171640
BLACKJACK ACES-1        
1 56956U 23084AA  26197.81470669  .00002708  00000+0  13373-3 0  9990
2 56956  97.6240 333.0969 0002017 117.3031 242.8408 15.18751806121396
ION SCV-011             
1 56957U 23084AB  26197.58167324  .00002806  00000+0  10245-3 0  9990
2 56957  98.1377  27.5905 0005905 300.0903  59.9748 15.29104816170301
GHOST-3                 
1 56958U 23084AC  26197.37465382  .00010496  00000+0  19692-3 0  9992
2 56958  97.6249 347.5377 0006864 180.9226 179.2013 15.48814226172532
AFR-1                   
1 56964U 23084AJ  26197.81932506  .00002403  00000+0  88658-4 0  9993
2 56964  97.6313 335.2342 0009370 228.5016 131.5420 15.28784612171757
METEOR-M2 3             
1 57166U 23091A   26197.88965686 -.00000021  00000+0  97888-5 0  9999
2 57166  98.6067 252.2577 0005142  86.4652 273.7115 14.24048987158744
UMKA 1 (RS40S)          
1 57172U 23091G   26197.83045058  .00003060  00000+0  14039-3 0  9993
2 57172  97.5033 256.4172 0012885  24.0850 336.0986 15.21131519168516
2023-091H               
1 57173U 23091H   26197.83008240  .00006188  00000+0  22061-3 0  9994
2 57173  97.5030 261.2721 0009406  19.6187 340.5413 15.29236571168838
2023-091J               
1 57174U 23091J   26197.86317832  .00001866  00000+0  10583-3 0  9992
2 57174  97.5041 250.5371 0014293  50.8755 309.3744 15.14118036168122
CUBEBEL 2 (EU11S)       
1 57175U 23091K   26197.81996807  .00006932  00000+0  24225-3 0  9990
2 57175  97.5032 261.3138 0009376  20.9988 339.1635 15.29846714168831
SITRO-AIS 5 (KATYS)     
1 57176U 23091L   26197.83173721  .00006488  00000+0  22519-3 0  9995
2 57176  97.5042 262.0240 0010479   6.6080 353.5297 15.30086185168873
ZORKIY-2M 1             
1 57177U 23091M   26197.81472416  .00003345  00000+0  15258-3 0  9998
2 57177  97.5072 256.6905 0013246  20.8883 339.2891 15.21261556168506
CUBESX-HSE 3 (RS42S)    
1 57178U 23091N   26197.83544133  .00007015  00000+0  23002-3 0  9991
2 57178  97.5074 263.8097 0009499 356.0319   4.0845 15.31908219168965
MONITOR-3 (RS58S)       
1 57180U 23091Q   26197.86128661  .00005688  00000+0  20822-3 0  9992
2 57180  97.5066 261.5342 0010812   3.9001 356.2321 15.28391451168820
MONITOR-4 (RS57S)       
1 57182U 23091S   26197.83868865  .00005716  00000+0  20870-3 0  9993
2 57182  97.5059 261.4842 0010803   4.1698 355.9629 15.28478325168826
MONITOR-2 (RS39S)       
1 57184U 23091U   26197.82366354  .00002471  00000+0  12069-3 0  9996
2 57184  97.5054 255.9171 0011219  18.6023 341.5619 15.19162740168450
SVYATOBOR 1 (RS60S)     
1 57187U 23091X   26197.81260760  .00004719  00000+0  18035-3 0  9998
2 57187  97.5073 261.8007 0008596 358.8195   1.3022 15.27078729168834
HORS 1                  
1 57188U 23091Y   26197.86148380  .00004977  00000+0  18940-3 0  9998
2 57188  97.5050 261.6084 0008035 359.0019   1.1202 15.27199030168847
VIZARD-METEO (RS38S)    
1 57189U 23091Z   26197.84480962  .00009396  00000+0  26257-3 0  9992
2 57189  97.5075 267.9415 0005526 332.6448  27.4505 15.36906017169240
SITRO-AIS 6 (CHIRKIN)   
1 57192U 23091AC  26197.81459191  .00005189  00000+0  20163-3 0  9999
2 57192  97.5050 260.9661 0011002  10.9737 349.1739 15.26454955168808
SITRO-AIS 8 (ANOKHIN)   
1 57193U 23091AD  26197.86105935  .00008322  00000+0  26421-3 0  9994
2 57193  97.5038 263.7660 0009334   2.1281 357.9999 15.32885018168997
SITRO-AIS 7 (FARTUSHNIY)
1 57194U 23091AE  26197.82393155  .00005003  00000+0  19644-3 0  9996
2 57194  97.5046 260.7847 0010976  12.1825 347.9677 15.26128522168793
AVION KALUGA 650        
1 57195U 23091AF  26197.84225764  .00002969  00000+0  13836-3 0  9994
2 57195  97.5072 257.3016 0010290  17.0452 343.1127 15.20642046168538
HORS 2                  
1 57196U 23091AG  26197.81273209  .00007529  00000+0  24169-3 0  9997
2 57196  97.5072 265.2588 0006678 349.1386  10.9710 15.32586225169066
A-SEANSAT-PG1           
1 57197U 23091AH  26197.81978300  .00010709  00000+0  28932-3 0  9998
2 57197  97.5065 268.0523 0005513 342.7643  17.3413 15.37918276169264
SITRO-AIS 10 (BURDAEV)  
1 57199U 23091AK  26197.82982826  .00011444  00000+0  29199-3 0  9992
2 57199  97.5065 269.1017 0004722 334.1674  25.9335 15.39665465169322
SITRO-AIS 9 (SHCHUKIN)  
1 57201U 23091AM  26197.86591140  .00011705  00000+0  30362-3 0  9999
2 57201  97.5063 268.8449 0004998 334.4028  25.6969 15.39150934169319
UTMN 2 (RS27S)          
1 57203U 23091AP  26197.83706411  .00006746  00000+0  21592-3 0  9991
2 57203  97.5070 265.4811 0006571 343.8701  16.2330 15.32724928169081
